NORAD_CAT_ID,OBJECT_NAME,OBJECT_TYPE,EPOCH,MEAN_MOTION,ECCENTRICITY,INCLINATION,RA_OF_ASC_NODE,ARG_OF_PERICENTER,MEAN_ANOMALY,BSTAR,MEAN_MOTION_DOT,MEAN_MOTION_DDOT,TLE_LINE0,TLE_LINE1,TLE_LINE2,SEMIMAJOR_AXIS,PERIOD,APOGEE,PERIGEE,DECAYED
53403.0,STARLINK-4507,PAYLOAD,2023-12-18 19:19:24,15.08838626,0.0001447,53.2163,169.1549,89.4308,270.685,5.1657e-05,5.34e-06,0.0,0 STARLINK-4507,1 53403U 22097R   23352.80514823  .00000534  00000-0  51657-4 0  9991,2 53403  53.2163 169.1549 0001447  89.4308 270.6850 15.08838626 75456,6917.885,95.438,540.751,538.749,0.0
53403.0,STARLINK-4507,PAYLOAD,2023-12-19 19:10:12,15.0883856,0.0001329,53.2159,164.6999,84.9979,275.1165,9.0267e-05,1.149e-05,0.0,0 STARLINK-4507,1 53403U 22097R   23353.79875045  .00001149  00000-0  90267-4 0  9999,2 53403  53.2159 164.6999 0001329  84.9979 275.1165 15.08838560 76090,6917.885,95.438,540.669,538.83,0.0
53403.0,STARLINK-4507,PAYLOAD,2023-12-20 19:00:59,15.08842038,0.0001441,53.2163,160.2386,75.729,284.3862,0.00010151,1.328e-05,0.0,0 STARLINK-4507,1 53403U 22097R   23354.79235029  .00001328  00000-0  10151-3 0  9994,2 53403  53.2163 160.2386 0001441  75.7290 284.3862 15.08842038 75759,6917.874,95.437,540.736,538.742,0.0
53403.0,STARLINK-4507,PAYLOAD,2023-12-21 15:41:00,15.08837317,0.0001697,53.2173,156.3711,66.7345,293.3825,5.1051e-05,5.24e-06,0.0,0 STARLINK-4507,1 53403U 22097R   23355.65347746  .00000524  00000-0  51051-4 0  9992,2 53403  53.2173 156.3711 0001697  66.7345 293.3825 15.08837317 75889,6917.889,95.438,540.928,538.58,0.0
53403.0,STARLINK-4507,PAYLOAD,2023-12-22 13:56:23,15.08847153,0.0001371,53.2174,152.2048,77.2309,282.8836,8.3187e-05,1.036e-05,0.0,0 STARLINK-4507,1 53403U 22097R   23356.58082998  .00001036  00000-0  83187-4 0  9994,2 53403  53.2174 152.2048 0001371  77.2309 282.8836 15.08847153 76519,6917.859,95.437,540.672,538.775,0.0
53403.0,STARLINK-4507,PAYLOAD,2023-12-22 17:07:10,15.08850252,0.0001459,53.2158,151.6125,75.1606,284.9548,0.00018888,2.72e-05,0.0,0 STARLINK-4507,1 53403U 22097R   23356.71331019  .00002720  00000-0  18888-3 0  9996,2 53403  53.2158 151.6125 0001459  75.1606 284.9548 15.08850252 76049,6917.849,95.437,540.723,538.705,0.0
53403.0,STARLINK-4507,PAYLOAD,2023-12-23 10:36:24,15.08845004,0.0001602,53.2166,148.3479,99.714,260.4033,0.0001053,1.388e-05,0.0,0 STARLINK-4507,1 53403U 22097R   23357.44195121  .00001388  00000-0  10530-3 0  9994,2 53403  53.2166 148.3479 0001602  99.7140 260.4033 15.08845004 76157,6917.865,95.437,540.838,538.622,0.0
53403.0,STARLINK-4507,PAYLOAD,2023-12-23 13:47:10,15.08844543,0.0001478,53.2154,147.7461,100.1325,259.9834,0.00010027,1.308e-05,0.0,0 STARLINK-4507,1 53403U 22097R   23357.57443083  .00001308  00000-0  10027-3 0  9994,2 53403  53.2154 147.7461 0001478 100.1325 259.9834 15.08844543 76666,6917.867,95.437,540.754,538.709,0.0
53403.0,STARLINK-4507,PAYLOAD,2023-12-23 16:57:57,15.08844791,0.000139,53.2165,147.1527,82.1692,277.9458,0.00010647,1.407e-05,0.0,0 STARLINK-4507,1 53403U 22097R   23357.70691132  .00001407  00000-0  10647-3 0  9997,2 53403  53.2165 147.1527 0001390  82.1692 277.9458 15.08844791 76683,6917.866,95.437,540.692,538.769,0.0
53403.0,STARLINK-4507,PAYLOAD,2023-12-24 13:37:57,15.0884919,0.0001435,53.2177,143.2899,102.8434,257.2719,4.2144e-05,3.83e-06,0.0,0 STARLINK-4507,1 53403U 22097R   23358.56802782  .00000383  00000-0  42144-4 0  9997,2 53403  53.2177 143.2899 0001435 102.8434 257.2719 15.08849190 76813,6917.852,95.437,540.71,538.725,0.0
53403.0,STARLINK-4507,PAYLOAD,2023-12-24 15:13:20,15.08849404,0.0001424,53.2177,142.9926,102.2752,257.8399,4.3136e-05,3.99e-06,0.0,0 STARLINK-4507,1 53403U 22097R   23358.63426732  .00000399  00000-0  43136-4 0  9991,2 53403  53.2177 142.9926 0001424 102.2752 257.8399 15.08849404 76330,6917.852,95.437,540.702,538.732,0.0
53403.0,STARLINK-4507,PAYLOAD,2023-12-25 10:17:58,15.08838252,0.0001461,53.2161,139.4221,75.0986,285.0168,3.8813e-05,3.3e-06,0.0,0 STARLINK-4507,1 53403U 22097R   23359.42915262  .00000330  00000-0  38813-4 0  9991,2 53403  53.2161 139.4221 0001461  75.0986 285.0168 15.08838252 76458,6917.886,95.438,540.761,538.74,0.0
53403.0,STARLINK-4507,PAYLOAD,2023-12-25 13:28:45,15.08836639,0.0001338,53.2168,138.8273,98.498,261.6163,5.6899e-05,6.18e-06,0.0,0 STARLINK-4507,1 53403U 22097R   23359.56163473  .00000618  00000-0  56899-4 0  9998,2 53403  53.2168 138.8273 0001338  98.4980 261.6163 15.08836639 76969,6917.891,95.438,540.681,538.83,0.0
53403.0,STARLINK-4507,PAYLOAD,2023-12-25 16:39:31,15.08836777,0.0001285,53.217,138.2328,86.783,273.3309,4.5664e-05,4.39e-06,0.0,0 STARLINK-4507,1 53403U 22097R   23359.69411517  .00000439  00000-0  45664-4 0  9996,2 53403  53.2170 138.2328 0001285  86.7830 273.3309 15.08836777 76989,6917.89,95.438,540.644,538.866,0.0
53403.0,STARLINK-4507,PAYLOAD,2023-12-26 14:54:55,15.08838482,0.0001265,53.2169,134.0696,80.5746,279.5389,1.4899e-05,-5.1e-07,0.0,0 STARLINK-4507,1 53403U 22097R   23360.62147733 -.00000051  00000-0  14899-4 0  9994,2 53403  53.2169 134.0696 0001265  80.5746 279.5389 15.08838482 77123,6917.885,95.438,540.625,538.875,0.0
53403.0,STARLINK-4507,PAYLOAD,2023-12-26 18:05:41,15.08844372,0.000131,53.2174,133.4751,85.867,274.2472,6.0087e-05,6.69e-06,0.0,0 STARLINK-4507,1 53403U 22097R   23360.75395202  .00000669  00000-0  60087-4 0  9998,2 53403  53.2174 133.4751 0001310  85.8670 274.2472 15.08844372 76656,6917.867,95.437,540.638,538.826,0.0
53403.0,STARLINK-4507,PAYLOAD,2023-12-27 08:24:10,15.08833962,0.0001323,53.2178,130.7995,87.286,272.8284,5.3385e-05,5.62e-06,0.0,0 STARLINK-4507,1 53403U 22097R   23361.35012054  .00000562  00000-0  53385-4 0  9991,2 53403  53.2178 130.7995 0001323  87.2860 272.8284 15.08833962 76749,6917.899,95.438,540.679,538.849,0.0
53403.0,STARLINK-4507,PAYLOAD,2023-12-27 14:45:43,15.08830715,0.0001517,53.2179,129.6115,85.4959,274.6206,0.00015567,2.19e-05,0.0,0 STARLINK-4507,1 53403U 22097R   23361.61508112  .00002190  00000-0  15567-3 0  9993,2 53403  53.2179 129.6115 0001517  85.4959 274.6206 15.08830715 77271,6917.909,95.438,540.823,538.724,0.0
53403.0,STARLINK-4507,PAYLOAD,2023-12-27 16:21:05,15.08848234,0.0001557,53.217,129.3127,94.1231,265.9939,-1.122e-05,-4.67e-06,0.0,0 STARLINK-4507,1 53403U 22097R   23361.68131349 -.00000467  00000-0 -11220-4 0  9994,2 53403  53.2170 129.3127 0001557  94.1231 265.9939 15.08848234 76793,6917.855,95.437,540.797,538.643,0.0
53403.0,STARLINK-4507,PAYLOAD,2023-12-28 14:36:29,15.08842603,0.0001645,53.2175,125.1507,64.1179,295.9982,4.8105e-05,4.78e-06,0.0,0 STARLINK-4507,1 53403U 22097R   23362.60867876  .00000478  00000-0  48105-4 0  9990,2 53403  53.2175 125.1507 0001645  64.1179 295.9982 15.08842603 77426,6917.872,95.437,540.875,538.599,0.0
53403.0,STARLINK-4507,PAYLOAD,2023-12-29 14:27:17,15.08841063,0.0001783,53.2176,120.6891,63.7776,296.3399,2.4323e-05,9.9e-07,0.0,0 STARLINK-4507,1 53403U 22097R   23363.60228071  .00000099  00000-0  24323-4 0  9994,2 53403  53.2176 120.6891 0001783  63.7776 296.3399 15.08841063 77576,6917.877,95.437,540.976,538.509,0.0
53403.0,STARLINK-4507,PAYLOAD,2023-12-30 11:07:17,15.08841051,0.0001445,53.2168,116.8244,89.3107,270.8051,6.3871e-05,7.29e-06,0.0,0 STARLINK-4507,1 53403U 22097R   23364.46339682  .00000729  00000-0  63871-4 0  9991,2 53403  53.2168 116.8244 0001445  89.3107 270.8051 15.08841051 77213,6917.877,95.437,540.742,538.743,0.0
53403.0,STARLINK-4507,PAYLOAD,2023-12-30 12:42:40,15.08841403,0.0001453,53.217,116.5269,94.1173,265.9985,6.4902e-05,7.45e-06,0.0,0 STARLINK-4507,1 53403U 22097R   23364.52963635  .00000745  00000-0  64902-4 0  9993,2 53403  53.2170 116.5269 0001453  94.1173 265.9985 15.08841403 77713,6917.876,95.437,540.746,538.736,0.0
53403.0,STARLINK-4507,PAYLOAD,2023-12-31 10:58:04,15.08836928,0.000141,53.2171,112.3652,91.2205,268.8948,8.2956e-06,-1.56e-06,0.0,0 STARLINK-4507,1 53403U 22097R   23365.45700220 -.00000156  00000-0  82956-5 0  9992,2 53403  53.2171 112.3652 0001410  91.2205 268.8948 15.08836928 77369,6917.89,95.438,540.73,538.779,0.0
53403.0,STARLINK-4507,PAYLOAD,2023-12-31 14:08:51,15.08836683,0.0001281,53.216,111.7687,84.1922,275.9216,9.1639e-06,-1.42e-06,0.0,0 STARLINK-4507,1 53403U 22097R   23365.58948217 -.00000142  00000-0  91639-5 0  9999,2 53403  53.2160 111.7687 0001281  84.1922 275.9216 15.08836683 77872,6917.891,95.438,540.642,538.869,0.0
53403.0,STARLINK-4507,PAYLOAD,2024-01-01 12:24:14,15.08841186,0.0001308,53.2164,107.6057,78.7676,281.3464,4.5758e-05,4.4e-06,0.0,0 STARLINK-4507,1 53403U 22097R   24001.51683969  .00000440  00000-0  45758-4 0  9990,2 53403  53.2164 107.6057 0001308  78.7676 281.3464 15.08841186 77528,6917.877,95.437,540.647,538.837,0.0
53403.0,STARLINK-4507,PAYLOAD,2024-01-01 13:59:37,15.08843966,0.0001324,53.2164,107.3078,83.5161,276.5982,6.3944e-05,7.3e-06,0.0,0 STARLINK-4507,1 53403U 22097R   24001.58307692  .00000730  00000-0  63944-4 0  9992,2 53403  53.2164 107.3078 0001324  83.5161 276.5982 15.08843966 78024,6917.868,95.437,540.649,538.817,0.0
53403.0,STARLINK-4507,PAYLOAD,2024-01-01 17:10:23,15.08846493,0.0001326,53.2165,106.7119,90.3919,269.7225,7.5082e-05,9.07e-06,0.0,0 STARLINK-4507,1 53403U 22097R   24001.71555424  .00000907  00000-0  75082-4 0  9997,2 53403  53.2165 106.7119 0001326  90.3919 269.7225 15.08846493 78047,6917.861,95.437,540.643,538.808,0.0
53403.0,STARLINK-4507,PAYLOAD,2024-01-02 12:15:02,15.0883695,0.0001435,53.2167,103.1426,105.9411,254.1739,4.6025e-05,4.45e-06,0.0,0 STARLINK-4507,1 53403U 22097R   24002.51044310  .00000445  00000-0  46025-4 0  9995,2 53403  53.2167 103.1426 0001435 105.9411 254.1739 15.08836950 77675,6917.89,95.438,540.747,538.762,0.0
53403.0,STARLINK-4507,PAYLOAD,2024-01-03 13:41:12,15.08838566,0.0001347,53.217,98.3878,86.0014,274.1132,-6.6914e-06,-3.94e-06,0.0,0 STARLINK-4507,1 53403U 22097R   24003.57028806 -.00000394  00000-0 -66914-5 0  9999,2 53403  53.2170  98.3878 0001347  86.0014 274.1132 15.08838566 78322,6917.885,95.438,540.682,538.818,0.0
